{"fetched_at":"2026-07-14T06:34:47.836Z","source":"https://celestrak.org/NORAD/elements/gp.php?NAME=HULIANWANG&FORMAT=JSON","constellation":"guowang","records":[{"OBJECT_NAME":"HULIANWANG DIGUI-156","OBJECT_ID":"2026-047B","EPOCH":"2026-07-13T14:36:39.468096","CLASSIFICATION_TYPE":"U","MEAN_MOTION":13.2932614,"ECCENTRICITY":0.0000838,"INCLINATION":50.0052,"RA_OF_ASC_NODE":321.5514,"ARG_OF_PERICENTER":196.3464,"MEAN_ANOMALY":163.7381,"EPHEMERIS_TYPE":0,"NORAD_CAT_ID":68130,"ELEMENT_SET_NO":999,"REV_AT_EPOCH":1657,"BSTAR":0.000048821,"MEAN_MOTION_DOT":-0.00000101,"MEAN_MOTION_DDOT":0},{"OBJECT_NAME":"HULIANWANG DIGUI-157","OBJECT_ID":"2026-047C","EPOCH":"2026-07-13T14:24:39.122784","CLASSIFICATION_TYPE":"U","MEAN_MOTION":13.29325419,"ECCENTRICITY":0.000083,"INCLINATION":50.0022,"RA_OF_ASC_NODE":321.4791,"ARG_OF_PERICENTER":191.1263,"MEAN_ANOMALY":168.9591,"EPHEMERIS_TYPE":0,"NORAD_CAT_ID":68131,"ELEMENT_SET_NO":999,"REV_AT_EPOCH":1658,"BSTAR":0.000018024,"MEAN_MOTION_DOT":-0.00000116,"MEAN_MOTION_DDOT":0},{"OBJECT_NAME":"HULIANWANG DIGUI-158","OBJECT_ID":"2026-047D","EPOCH":"2026-07-13T14:12:34.524000","CLASSIFICATION_TYPE":"U","MEAN_MOTION":13.29324198,"ECCENTRICITY":0.0000955,"INCLINATION":50.0067,"RA_OF_ASC_NODE":321.483,"ARG_OF_PERICENTER":192.7456,"MEAN_ANOMALY":167.3392,"EPHEMERIS_TYPE":0,"NORAD_CAT_ID":68132,"ELEMENT_SET_NO":999,"REV_AT_EPOCH":1657,"BSTAR":0.000058226,"MEAN_MOTION_DOT":-9.7e-7,"MEAN_MOTION_DDOT":0},{"OBJECT_NAME":"HULIANWANG DIGUI-159","OBJECT_ID":"2026-047E","EPOCH":"2026-07-13T12:12:19.136448","CLASSIFICATION_TYPE":"U","MEAN_MOTION":13.29325948,"ECCENTRICITY":0.00010232,"INCLINATION":50.0037,"RA_OF_ASC_NODE":321.678,"ARG_OF_PERICENTER":186.4914,"MEAN_ANOMALY":173.5945,"EPHEMERIS_TYPE":0,"NORAD_CAT_ID":68133,"ELEMENT_SET_NO":999,"REV_AT_EPOCH":1657,"BSTAR":0.000033481573,"MEAN_MOTION_DOT":-0.00000109,"MEAN_MOTION_DDOT":0},{"OBJECT_NAME":"HULIANWANG DIGUI-160","OBJECT_ID":"2026-047F","EPOCH":"2026-07-13T08:11:37.436928","CLASSIFICATION_TYPE":"U","MEAN_MOTION":13.29325606,"ECCENTRICITY":0.0001106,"INCLINATION":50.0091,"RA_OF_ASC_NODE":322.189,"ARG_OF_PERICENTER":175.1983,"MEAN_ANOMALY":184.89,"EPHEMERIS_TYPE":0,"NORAD_CAT_ID":68134,"ELEMENT_SET_NO":999,"REV_AT_EPOCH":1654,"BSTAR":0.0000413,"MEAN_MOTION_DOT":-0.00000105,"MEAN_MOTION_DDOT":0},{"OBJECT_NAME":"HULIANWANG DIGUI-161","OBJECT_ID":"2026-047G","EPOCH":"2026-07-13T08:23:40.580736","CLASSIFICATION_TYPE":"U","MEAN_MOTION":13.29334308,"ECCENTRICITY":0.00008937,"INCLINATION":50.0114,"RA_OF_ASC_NODE":322.2536,"ARG_OF_PERICENTER":189.2533,"MEAN_ANOMALY":170.8323,"EPHEMERIS_TYPE":0,"NORAD_CAT_ID":68135,"ELEMENT_SET_NO":999,"REV_AT_EPOCH":1655,"BSTAR":0.000045818863,"MEAN_MOTION_DOT":-0.00000103,"MEAN_MOTION_DDOT":0},{"OBJECT_NAME":"HULIANWANG DIGUI-162","OBJECT_ID":"2026-047H","EPOCH":"2026-07-13T15:12:57.575808","CLASSIFICATION_TYPE":"U","MEAN_MOTION":13.29324129,"ECCENTRICITY":0.0000905,"INCLINATION":50.0082,"RA_OF_ASC_NODE":321.0593,"ARG_OF_PERICENTER":198.2843,"MEAN_ANOMALY":161.7997,"EPHEMERIS_TYPE":0,"NORAD_CAT_ID":68136,"ELEMENT_SET_NO":999,"REV_AT_EPOCH":1658,"BSTAR":0.000068659,"MEAN_MOTION_DOT":-9.2e-7,"MEAN_MOTION_DDOT":0},{"OBJECT_NAME":"HULIANWANG DIGUI-163","OBJECT_ID":"2026-047J","EPOCH":"2026-07-13T15:00:40.620096","CLASSIFICATION_TYPE":"U","MEAN_MOTION":13.29338979,"ECCENTRICITY":0.0000766,"INCLINATION":50.0086,"RA_OF_ASC_NODE":321.018,"ARG_OF_PERICENTER":196.9058,"MEAN_ANOMALY":163.1789,"EPHEMERIS_TYPE":0,"NORAD_CAT_ID":68137,"ELEMENT_SET_NO":999,"REV_AT_EPOCH":1659,"BSTAR":0.000072962,"MEAN_MOTION_DOT":-9e-7,"MEAN_MOTION_DDOT":0},{"OBJECT_NAME":"HULIANWANG DIGUI-164","OBJECT_ID":"2026-076A","EPOCH":"2026-07-13T20:53:52.719648","CLASSIFICATION_TYPE":"U","MEAN_MOTION":13.24410832,"ECCENTRICITY":0.0002045,"INCLINATION":86.4945,"RA_OF_ASC_NODE":34.8659,"ARG_OF_PERICENTER":78.8747,"MEAN_ANOMALY":281.2617,"EPHEMERIS_TYPE":0,"NORAD_CAT_ID":68656,"ELEMENT_SET_NO":999,"REV_AT_EPOCH":1290,"BSTAR":0.000031445,"MEAN_MOTION_DOT":2.8e-7,"MEAN_MOTION_DDOT":0},{"OBJECT_NAME":"HULIANWANG DIGUI-165","OBJECT_ID":"2026-076B","EPOCH":"2026-07-13T18:54:13.957056","CLASSIFICATION_TYPE":"U","MEAN_MOTION":13.24413557,"ECCENTRICITY":0.0002159,"INCLINATION":86.4965,"RA_OF_ASC_NODE":34.9103,"ARG_OF_PERICENTER":85.1081,"MEAN_ANOMALY":275.0299,"EPHEMERIS_TYPE":0,"NORAD_CAT_ID":68657,"ELEMENT_SET_NO":999,"REV_AT_EPOCH":1289,"BSTAR":-0.000062424,"MEAN_MOTION_DOT":-1.2e-7,"MEAN_MOTION_DDOT":0},{"OBJECT_NAME":"HULIANWANG DIGUI-166","OBJECT_ID":"2026-076C","EPOCH":"2026-07-13T20:32:13.632576","CLASSIFICATION_TYPE":"U","MEAN_MOTION":13.24411566,"ECCENTRICITY":0.0002128,"INCLINATION":86.4906,"RA_OF_ASC_NODE":34.8195,"ARG_OF_PERICENTER":84.9797,"MEAN_ANOMALY":275.158,"EPHEMERIS_TYPE":0,"NORAD_CAT_ID":68658,"ELEMENT_SET_NO":999,"REV_AT_EPOCH":1290,"BSTAR":-0.000066023,"MEAN_MOTION_DOT":-1.4e-7,"MEAN_MOTION_DDOT":0},{"OBJECT_NAME":"HULIANWANG DIGUI-167","OBJECT_ID":"2026-076D","EPOCH":"2026-07-13T20:21:15.433056","CLASSIFICATION_TYPE":"U","MEAN_MOTION":13.24413609,"ECCENTRICITY":0.0002124,"INCLINATION":86.4961,"RA_OF_ASC_NODE":34.8746,"ARG_OF_PERICENTER":84.7502,"MEAN_ANOMALY":275.3874,"EPHEMERIS_TYPE":0,"NORAD_CAT_ID":68659,"ELEMENT_SET_NO":999,"REV_AT_EPOCH":1290,"BSTAR":-0.000076615,"MEAN_MOTION_DOT":-1.8e-7,"MEAN_MOTION_DDOT":0},{"OBJECT_NAME":"HULIANWANG DIGUI-168","OBJECT_ID":"2026-076E","EPOCH":"2026-07-13T20:10:22.831392","CLASSIFICATION_TYPE":"U","MEAN_MOTION":13.24411819,"ECCENTRICITY":0.0002148,"INCLINATION":86.4943,"RA_OF_ASC_NODE":34.8506,"ARG_OF_PERICENTER":85.3191,"MEAN_ANOMALY":274.8189,"EPHEMERIS_TYPE":0,"NORAD_CAT_ID":68660,"ELEMENT_SET_NO":999,"REV_AT_EPOCH":1289,"BSTAR":-0.000094736,"MEAN_MOTION_DOT":-2.6e-7,"MEAN_MOTION_DDOT":0}]}
