HULIANWANG DIGUI-156    
1 68130U 26047B   26194.60879014 -.00000101  00000+0  48821-4 0  9993
2 68130  50.0052 321.5514 0000838 196.3464 163.7381 13.29326140 16574
HULIANWANG DIGUI-157    
1 68131U 26047C   26194.60045281 -.00000116  00000+0  18024-4 0  9993
2 68131  50.0022 321.4791 0000830 191.1263 168.9591 13.29325419 16589
HULIANWANG DIGUI-158    
1 68132U 26047D   26194.59206625 -.00000097  00000+0  58226-4 0  9999
2 68132  50.0067 321.4830 0000955 192.7456 167.3392 13.29324198 16576
HULIANWANG DIGUI-159    
1 68133U 26047E   26194.50855482 -.00000109  00000+0  33482-4 0  9993
2 68133  50.0037 321.6780 0001023 186.4914 173.5945 13.29325948 16573
HULIANWANG DIGUI-160    
1 68134U 26047F   26194.34140552 -.00000105  00000+0  41300-4 0  9995
2 68134  50.0091 322.1890 0001106 175.1983 184.8900 13.29325606 16549
HULIANWANG DIGUI-161    
1 68135U 26047G   26194.34977524 -.00000103  00000+0  45819-4 0  9990
2 68135  50.0114 322.2536 0000893 189.2533 170.8323 13.29334308 16557
HULIANWANG DIGUI-162    
1 68136U 26047H   26194.63399972 -.00000092  00000+0  68659-4 0  9992
2 68136  50.0082 321.0593 0000905 198.2843 161.7997 13.29324129 16589
HULIANWANG DIGUI-163    
1 68137U 26047J   26194.62547014 -.00000090  00000+0  72962-4 0  9994
2 68137  50.0086 321.0180 0000766 196.9058 163.1789 13.29338979 16598
HULIANWANG DIGUI-164    
1 68656U 26076A   26194.87074907  .00000028  00000+0  31445-4 0  9996
2 68656  86.4945  34.8659 0002045  78.8747 281.2617 13.24410832 12903
HULIANWANG DIGUI-165    
1 68657U 26076B   26194.78766154 -.00000012  00000+0 -62424-4 0  9995
2 68657  86.4965  34.9103 0002159  85.1081 275.0299 13.24413557 12891
HULIANWANG DIGUI-166    
1 68658U 26076C   26194.85571334 -.00000014  00000+0 -66023-4 0  9999
2 68658  86.4906  34.8195 0002128  84.9797 275.1580 13.24411566 12908
HULIANWANG DIGUI-167    
1 68659U 26076D   26194.84809529 -.00000018  00000+0 -76615-4 0  9991
2 68659  86.4961  34.8746 0002124  84.7502 275.3874 13.24413609 12908
HULIANWANG DIGUI-168    
1 68660U 26076E   26194.84054203 -.00000026  00000+0 -94736-4 0  9997
2 68660  86.4943  34.8506 0002148  85.3191 274.8189 13.24411819 12893
